QIANFAN-57              
1 62787U 25016C   25259.20677473  .00000065  00000+0  82585-4 0  9995
2 62787  88.9778 112.2391 0002525  69.4003 290.7419 13.50964954 35381
QIANFAN-58              
1 62788U 25016D   25259.17791213  .00000068  00000+0  86703-4 0  9990
2 62788  88.9747 112.1009 0012220 233.0475 126.9558 13.50971529 35423
QIANFAN-59              
1 62789U 25016E   25259.26912732  .00000067  00000+0  87467-4 0  9999
2 62789  88.9770 112.1424 0012632 236.9934 123.0003 13.49480193 35434
QIANFAN-60              
1 62790U 25016F   25259.17818742  .00000051  00000+0  59048-4 0  9994
2 62790  88.9752 112.1458 0013768 234.1270 125.8604 13.52522915 35404
QIANFAN-61              
1 62791U 25016G   25259.26838499  .00000060  00000+0  74456-4 0  9996
2 62791  88.9819 112.2359 0013070 232.5296 127.4667 13.50971168 35432
QIANFAN-62              
1 62792U 25016H   25259.27249429  .00000059  00000+0  72179-4 0  9995
2 62792  88.9766 112.1512 0014444 233.2885 126.6940 13.50965147 35426
QIANFAN-63              
1 62793U 25016J   25259.21583776  .00000078  00000+0  10370-3 0  9991
2 62793  88.9772 112.1009 0014157 239.9927 119.9819 13.49731627 35451
QIANFAN-64              
1 62794U 25016K   25259.27190745  .00000053  00000+0  61733-4 0  9991
2 62794  88.9759 112.0847 0012318 229.5024 130.5055 13.52420497 35451
